AJISAI (EGS)            
1 16908U 86061A   25333.83383330 -.00000101  00000+0 -26140-4 0  9992
2 16908  50.0112  40.4016 0011254  33.4796 126.5207 12.44514119455565
TDRS 3                  
1 19548U 88091B   25332.92623115 -.00000286  00000+0  00000+0 0  9992
2 19548  12.7565 342.3196 0041005 342.9140  27.3534  1.00277816123389
COSMOS 1989 (ETALON 1)  
1 19751U 89001C   25333.13428123  .00000005  00000+0  00000+0 0  9994
2 19751  64.8287  79.0436 0023439 217.1188 315.4357  2.13155927287109
COSMOS 2024 (ETALON 2)  
1 20026U 89039C   25333.23250729 -.00000016  00000+0  00000+0 0  9991
2 20026  65.0587 317.4215 0020451 214.2678 156.6653  2.13204436284245
FLTSATCOM 8 (USA 46)    
1 20253U 89077A   25333.59609081 -.00000353  00000+0  00000+0 0  9997
2 20253  12.4774 352.3591 0007461 275.9023 140.8543  1.00273689258560
LUSAT (LO-19)           
1 20442U 90005G   25333.77793201  .00000157  00000+0  73020-4 0  9996
2 20442  98.8968 344.9763 0012596  72.7934 287.4627 14.34035910873816
HST                     
1 20580U 90037B   25333.79396595  .00007668  00000+0  26663-3 0  9995
2 20580  28.4702   0.5841 0002114  99.4437 260.6397 15.27771999758013
SKYNET 4C               
1 20776U 90079A   25331.15908134  .00000140  00000+0  00000+0 0  9995
2 20776  13.4052 351.1840 0003741 242.8230 282.9334  1.00271028128864
