{
  "type": "FeatureCollection",
  "features": [
    {
      "type": "Feature",
      "properties": {
        "OBJECT_NAME": "AJISAI (EGS)",
        "OBJECT_ID": "1986-061A",
        "EPOCH": "2025-11-29T20:00:43.197120",
        "MEAN_MOTION": 12.44514119,
        "ECCENTRICITY": 0.0011254,
        "INCLINATION": 50.0112,
        "RA_OF_ASC_NODE": 40.4016,
        "ARG_OF_PERICENTER": 33.4796,
        "MEAN_ANOMALY": 126.5207,
        "EPHEMERIS_TYPE": 0,
        "CLASSIFICATION_TYPE": "U",
        "NORAD_CAT_ID": 16908,
        "ELEMENT_SET_NO": 999,
        "REV_AT_EPOCH": 45556,
        "BSTAR": -2.614e-05,
        "MEAN_MOTION_DOT": -1.01e-06,
        "MEAN_MOTION_DDOT": 0,
        "norad_id": 16908,
        "name": "AJISAI (EGS)",
        "group": "active",
        "longitude_deg": NaN,
        "latitude_deg": NaN,
        "alt_km": NaN,
        "orbit_class": "HEO",
        "timestamp": "2025-11-30T05:40:21.613342+00:00"
      },
      "geometry": {
        "type": "Point",
        "coordinates": [
          NaN,
          NaN
        ]
      }
    },
    {
      "type": "Feature",
      "properties": {
        "OBJECT_NAME": "TDRS 3",
        "OBJECT_ID": "1988-091B",
        "EPOCH": "2025-11-28T22:13:46.371360",
        "MEAN_MOTION": 1.00277816,
        "ECCENTRICITY": 0.00410055,
        "INCLINATION": 12.7565,
        "RA_OF_ASC_NODE": 342.3196,
        "ARG_OF_PERICENTER": 342.914,
        "MEAN_ANOMALY": 27.3534,
        "EPHEMERIS_TYPE": 0,
        "CLASSIFICATION_TYPE": "U",
        "NORAD_CAT_ID": 19548,
        "ELEMENT_SET_NO": 999,
        "REV_AT_EPOCH": 12338,
        "BSTAR": 0,
        "MEAN_MOTION_DOT": -2.86e-06,
        "MEAN_MOTION_DDOT": 0,
        "norad_id": 19548,
        "name": "TDRS 3",
        "group": "active",
        "longitude_deg": NaN,
        "latitude_deg": NaN,
        "alt_km": NaN,
        "orbit_class": "HEO",
        "timestamp": "2025-11-30T05:40:21.613348+00:00"
      },
      "geometry": {
        "type": "Point",
        "coordinates": [
          NaN,
          NaN
        ]
      }
    },
    {
      "type": "Feature",
      "properties": {
        "OBJECT_NAME": "COSMOS 1989 (ETALON 1)",
        "OBJECT_ID": "1989-001C",
        "EPOCH": "2025-11-29T03:13:21.898272",
        "MEAN_MOTION": 2.13155927,
        "ECCENTRICITY": 0.00234394,
        "INCLINATION": 64.8287,
        "RA_OF_ASC_NODE": 79.0436,
        "ARG_OF_PERICENTER": 217.1188,
        "MEAN_ANOMALY": 315.4357,
        "EPHEMERIS_TYPE": 0,
        "CLASSIFICATION_TYPE": "U",
        "NORAD_CAT_ID": 19751,
        "ELEMENT_SET_NO": 999,
        "REV_AT_EPOCH": 28710,
        "BSTAR": 0,
        "MEAN_MOTION_DOT": 5e-08,
        "MEAN_MOTION_DDOT": 0,
        "norad_id": 19751,
        "name": "COSMOS 1989 (ETALON 1)",
        "group": "active",
        "longitude_deg": NaN,
        "latitude_deg": NaN,
        "alt_km": NaN,
        "orbit_class": "HEO",
        "timestamp": "2025-11-30T05:40:21.613355+00:00"
      },
      "geometry": {
        "type": "Point",
        "coordinates": [
          NaN,
          NaN
        ]
      }
    },
    {
      "type": "Feature",
      "properties": {
        "OBJECT_NAME": "COSMOS 2024 (ETALON 2)",
        "OBJECT_ID": "1989-039C",
        "EPOCH": "2025-11-29T05:34:48.629856",
        "MEAN_MOTION": 2.13204436,
        "ECCENTRICITY": 0.00204517,
        "INCLINATION": 65.0587,
        "RA_OF_ASC_NODE": 317.4215,
        "ARG_OF_PERICENTER": 214.2678,
        "MEAN_ANOMALY": 156.6653,
        "EPHEMERIS_TYPE": 0,
        "CLASSIFICATION_TYPE": "U",
        "NORAD_CAT_ID": 20026,
        "ELEMENT_SET_NO": 999,
        "REV_AT_EPOCH": 28424,
        "BSTAR": 0,
        "MEAN_MOTION_DOT": -1.6e-07,
        "MEAN_MOTION_DDOT": 0,
        "norad_id": 20026,
        "name": "COSMOS 2024 (ETALON 2)",
        "group": "active",
        "longitude_deg": NaN,
        "latitude_deg": NaN,
        "alt_km": NaN,
        "orbit_class": "HEO",
        "timestamp": "2025-11-30T05:40:21.613362+00:00"
      },
      "geometry": {
        "type": "Point",
        "coordinates": [
          NaN,
          NaN
        ]
      }
    },
    {
      "type": "Feature",
      "properties": {
        "OBJECT_NAME": "FLTSATCOM 8 (USA 46)",
        "OBJECT_ID": "1989-077A",
        "EPOCH": "2025-11-29T14:18:22.245984",
        "MEAN_MOTION": 1.00273689,
        "ECCENTRICITY": 0.0007461,
        "INCLINATION": 12.4774,
        "RA_OF_ASC_NODE": 352.3591,
        "ARG_OF_PERICENTER": 275.9023,
        "MEAN_ANOMALY": 140.8543,
        "EPHEMERIS_TYPE": 0,
        "CLASSIFICATION_TYPE": "U",
        "NORAD_CAT_ID": 20253,
        "ELEMENT_SET_NO": 999,
        "REV_AT_EPOCH": 25856,
        "BSTAR": 0,
        "MEAN_MOTION_DOT": -3.53e-06,
        "MEAN_MOTION_DDOT": 0,
        "norad_id": 20253,
        "name": "FLTSATCOM 8 (USA 46)",
        "group": "active",
        "longitude_deg": NaN,
        "latitude_deg": NaN,
        "alt_km": NaN,
        "orbit_class": "HEO",
        "timestamp": "2025-11-30T05:40:21.613368+00:00"
      },
      "geometry": {
        "type": "Point",
        "coordinates": [
          NaN,
          NaN
        ]
      }
    },
    {
      "type": "Feature",
      "properties": {
        "OBJECT_NAME": "LUSAT (LO-19)",
        "OBJECT_ID": "1990-005G",
        "EPOCH": "2025-11-29T18:40:13.325664",
        "MEAN_MOTION": 14.3403591,
        "ECCENTRICITY": 0.0012596,
        "INCLINATION": 98.8968,
        "RA_OF_ASC_NODE": 344.9763,
        "ARG_OF_PERICENTER": 72.7934,
        "MEAN_ANOMALY": 287.4627,
        "EPHEMERIS_TYPE": 0,
        "CLASSIFICATION_TYPE": "U",
        "NORAD_CAT_ID": 20442,
        "ELEMENT_SET_NO": 999,
        "REV_AT_EPOCH": 87381,
        "BSTAR": 7.302e-05,
        "MEAN_MOTION_DOT": 1.57e-06,
        "MEAN_MOTION_DDOT": 0,
        "norad_id": 20442,
        "name": "LUSAT (LO-19)",
        "group": "active",
        "longitude_deg": NaN,
        "latitude_deg": NaN,
        "alt_km": NaN,
        "orbit_class": "HEO",
        "timestamp": "2025-11-30T05:40:21.613375+00:00"
      },
      "geometry": {
        "type": "Point",
        "coordinates": [
          NaN,
          NaN
        ]
      }
    },
    {
      "type": "Feature",
      "properties": {
        "OBJECT_NAME": "HST",
        "OBJECT_ID": "1990-037B",
        "EPOCH": "2025-11-29T19:03:18.658080",
        "MEAN_MOTION": 15.27771999,
        "ECCENTRICITY": 0.0002114,
        "INCLINATION": 28.4702,
        "RA_OF_ASC_NODE": 0.5841,
        "ARG_OF_PERICENTER": 99.4437,
        "MEAN_ANOMALY": 260.6397,
        "EPHEMERIS_TYPE": 0,
        "CLASSIFICATION_TYPE": "U",
        "NORAD_CAT_ID": 20580,
        "ELEMENT_SET_NO": 999,
        "REV_AT_EPOCH": 75801,
        "BSTAR": 0.00026663,
        "MEAN_MOTION_DOT": 7.668e-05,
        "MEAN_MOTION_DDOT": 0,
        "norad_id": 20580,
        "name": "HST",
        "group": "active",
        "longitude_deg": NaN,
        "latitude_deg": NaN,
        "alt_km": NaN,
        "orbit_class": "HEO",
        "timestamp": "2025-11-30T05:40:21.613382+00:00"
      },
      "geometry": {
        "type": "Point",
        "coordinates": [
          NaN,
          NaN
        ]
      }
    },
    {
      "type": "Feature",
      "properties": {
        "OBJECT_NAME": "SKYNET 4C",
        "OBJECT_ID": "1990-079A",
        "EPOCH": "2025-11-27T03:49:04.627776",
        "MEAN_MOTION": 1.00271028,
        "ECCENTRICITY": 0.00037412,
        "INCLINATION": 13.4052,
        "RA_OF_ASC_NODE": 351.184,
        "ARG_OF_PERICENTER": 242.823,
        "MEAN_ANOMALY": 282.9334,
        "EPHEMERIS_TYPE": 0,
        "CLASSIFICATION_TYPE": "U",
        "NORAD_CAT_ID": 20776,
        "ELEMENT_SET_NO": 999,
        "REV_AT_EPOCH": 12886,
        "BSTAR": 0,
        "MEAN_MOTION_DOT": 1.4e-06,
        "MEAN_MOTION_DDOT": 0,
        "norad_id": 20776,
        "name": "SKYNET 4C",
        "group": "active",
        "longitude_deg": NaN,
        "latitude_deg": NaN,
        "alt_km": NaN,
        "orbit_class": "HEO",
        "timestamp": "2025-11-30T05:40:21.613388+00:00"
      },
      "geometry": {
        "type": "Point",
        "coordinates": [
          NaN,
          NaN
        ]
      }
    }
  ]
}